0 FENGYUN 1C DEB
1 37042U 99025EEA 13281.76087335  .00003153  00000-0  12013-2 0  1594
2 37042 098.7787 269.9619 0114720 316.6356 042.5841 14.28019321310606
0 FENGYUN 1C DEB
1 37042U 99025EEA 13287.15588966  .00003919  00000-0  14882-2 0  1618
2 37042 098.7787 275.3878 0114467 300.8287 058.1670 14.28057660311376
0 FENGYUN 1C DEB
1 37042U 99025EEA 13289.74825198  .00005003  00000-0  18943-2 0  1625
2 37042 098.7782 277.9934 0114248 293.1859 065.7320 14.28080221311744
0 FENGYUN 1C DEB
1 37042U 99025EEA 13292.76095535  .00004058  00000-0  15395-2 0  1633
2 37042 098.7790 281.0227 0114106 284.3399 074.5136 14.28103491312174
0 FENGYUN 1C DEB
1 37042U 99025EEA 13295.21312426  .00005131  00000-0  19411-2 0  1644
2 37042 098.7796 283.4886 0114037 277.0966 081.7259 14.28120285312524
